NORAD_CAT_ID,OBJECT_NAME,OBJECT_TYPE,EPOCH,MEAN_MOTION,ECCENTRICITY,INCLINATION,RA_OF_ASC_NODE,ARG_OF_PERICENTER,MEAN_ANOMALY,BSTAR,MEAN_MOTION_DOT,MEAN_MOTION_DDOT,TLE_LINE0,TLE_LINE1,TLE_LINE2,SEMIMAJOR_AXIS,PERIOD,APOGEE,PERIGEE,DECAYED
55963.0,STARLINK-5924,PAYLOAD,2023-06-23 09:34:11,15.6992616,0.0003645,69.9986,266.5595,272.0666,88.0112,5.4737e-06,4.45e-06,0.0,0 STARLINK-5924,1 55963U 23037BB  23174.39874839  .00000445  00000-0  54737-5 0  9995,2 55963  69.9986 266.5595 0003645 272.0666  88.0112 15.69926160 15856,6737.245,91.724,361.566,356.655,0.0
55963.0,STARLINK-5924,PAYLOAD,2023-06-23 15:41:12,15.69922693,0.0003677,69.9967,265.8406,274.5298,85.5478,1.5001e-07,-1.95e-06,0.0,0 STARLINK-5924,1 55963U 23037BB  23174.65361961 -.00000195  00000-0  15001-6 0  9996,2 55963  69.9967 265.8406 0003677 274.5298  85.5478 15.69922693 15899,6737.255,91.724,361.597,356.643,0.0
55963.0,STARLINK-5924,PAYLOAD,2023-06-24 14:37:28,15.69935116,0.0003703,69.9978,263.1536,272.5544,87.5227,1.4858e-05,1.575e-05,0.0,0 STARLINK-5924,1 55963U 23037BB  23175.60936157  .00001575  00000-0  14858-4 0  9996,2 55963  69.9978 263.1536 0003703 272.5544  87.5227 15.69935116 16044,6737.22,91.724,361.579,356.59,0.0
55963.0,STARLINK-5924,PAYLOAD,2023-06-25 08:58:31,15.6991853,0.000302,69.9999,261.0069,268.1562,91.9288,4.4933e-06,3.28e-06,0.0,0 STARLINK-5924,1 55963U 23037BB  23176.37397262  .00000328  00000-0  44933-5 0  9992,2 55963  69.9999 261.0069 0003020 268.1562  91.9288 15.69918530 16168,6737.267,91.725,361.167,357.097,0.0
55963.0,STARLINK-5924,PAYLOAD,2023-06-26 07:54:46,15.69945464,0.0003181,69.9991,258.3204,274.9871,85.0962,3.0367e-05,3.443e-05,0.0,0 STARLINK-5924,1 55963U 23037BB  23177.32970685  .00003443  00000-0  30367-4 0  9990,2 55963  69.9991 258.3204 0003181 274.9871  85.0962 15.69945464 16312,6737.19,91.723,361.198,356.912,0.0
55963.0,STARLINK-5924,PAYLOAD,2023-06-26 15:33:34,15.69919216,0.000286,69.9985,257.4244,275.9556,84.1313,-1.6456e-06,-4.1e-06,0.0,0 STARLINK-5924,1 55963U 23037BB  23177.64831118 -.00000410  00000-0 -16456-5 0  9999,2 55963  69.9985 257.4244 0002860 275.9556  84.1313 15.69919216 16364,6737.265,91.724,361.057,357.203,0.0
55963.0,STARLINK-5924,PAYLOAD,2023-06-28 04:15:36,15.69931893,0.000326,69.9979,253.1245,276.5571,83.5253,-1.1289e-05,-1.57e-05,0.0,0 STARLINK-5924,1 55963U 23037BB  23179.17750901 -.00001570  00000-0 -11289-4 0  9995,2 55963  69.9979 253.1245 0003260 276.5571  83.5253 15.69931893 16608,6737.229,91.724,361.29,356.898,0.0
55963.0,STARLINK-5924,PAYLOAD,2023-06-29 07:47:09,15.69917247,0.0003116,69.9975,249.8992,265.394,94.69,3.422e-06,1.99e-06,0.0,0 STARLINK-5924,1 55963U 23037BB  23180.32441348  .00000199  00000-0  34220-5 0  9991,2 55963  69.9975 249.8992 0003116 265.3940  94.6900 15.69917247 16789,6737.271,91.725,361.235,357.036,0.0
55963.0,STARLINK-5924,PAYLOAD,2023-07-01 10:14:58,15.6992365,0.0003374,69.9964,243.9867,261.9476,98.1337,8.7245e-06,8.36e-06,0.0,0 STARLINK-5924,1 55963U 23037BB  23182.42706080  .00000836  00000-0  87245-5 0  9994,2 55963  69.9964 243.9867 0003374 261.9476  98.1337 15.69923650 17111,6737.252,91.724,361.391,356.844,0.0
55963.0,STARLINK-5924,PAYLOAD,2023-07-02 13:46:30,15.69919333,0.0003118,69.9973,240.7621,264.7339,95.3501,1.9244e-05,2.101e-05,0.0,0 STARLINK-5924,1 55963U 23037BB  23183.57396351  .00002101  00000-0  19244-4 0  9997,2 55963  69.9973 240.7621 0003118 264.7339  95.3501 15.69919333 17293,6737.265,91.724,361.23,357.029,0.0
55963.0,STARLINK-5924,PAYLOAD,2023-07-03 14:14:32,15.69922459,0.0003058,69.9981,237.8991,269.913,90.1715,2.0242e-06,3.1e-07,0.0,0 STARLINK-5924,1 55963U 23037BB  23184.59343219  .00000031  00000-0  20242-5 0  9996,2 55963  69.9981 237.8991 0003058 269.9130  90.1715 15.69922459 17459,6737.256,91.724,361.181,357.061,0.0
55963.0,STARLINK-5924,PAYLOAD,2023-07-04 14:42:34,15.69926632,0.0003155,69.9983,235.0329,258.2195,101.8647,8.1342e-06,7.66e-06,0.0,0 STARLINK-5924,1 55963U 23037BB  23185.61289701  .00000766  00000-0  81342-5 0  9998,2 55963  69.9983 235.0329 0003155 258.2195 101.8647 15.69926632 17615,6737.244,91.724,361.235,356.983,0.0
55963.0,STARLINK-5924,PAYLOAD,2023-07-05 06:00:05,15.69922374,0.0003062,69.9993,233.2406,269.3029,90.7816,-1.13e-06,-3.48e-06,0.0,0 STARLINK-5924,1 55963U 23037BB  23186.25006914 -.00000348  00000-0 -11300-5 0  9997,2 55963  69.9993 233.2406 0003062 269.3029  90.7816 15.69922374 17712,6737.256,91.724,361.184,357.058,0.0
55963.0,STARLINK-5924,PAYLOAD,2023-07-05 12:07:06,15.69925904,0.0002982,69.9996,232.5251,270.1973,89.8881,1.0784e-05,1.084e-05,0.0,0 STARLINK-5924,1 55963U 23037BB  23186.50493173  .00001084  00000-0  10784-4 0  9992,2 55963  69.9996 232.5251 0002982 270.1973  89.8881 15.69925904 17750,6737.246,91.724,361.12,357.102,0.0
55963.0,STARLINK-5924,PAYLOAD,2023-07-06 12:35:08,15.69921792,0.0002958,69.9998,229.6592,250.5001,109.5876,1.0121e-05,1.004e-05,0.0,0 STARLINK-5924,1 55963U 23037BB  23187.52440227  .00001004  00000-0  10121-4 0  9994,2 55963  69.9998 229.6592 0002958 250.5001 109.5876 15.69921792 17917,6737.258,91.724,361.116,357.13,0.0
55963.0,STARLINK-5924,PAYLOAD,2023-07-07 13:03:09,15.69926087,0.0003276,69.9994,226.7926,264.8545,95.2277,1.3262e-05,1.382e-05,0.0,0 STARLINK-5924,1 55963U 23037BB  23188.54386557  .00001382  00000-0  13262-4 0  9990,2 55963  69.9994 226.7926 0003276 264.8545  95.2277 15.69926087 18073,6737.245,91.724,361.318,356.903,0.0
55963.0,STARLINK-5924,PAYLOAD,2023-07-08 19:38:13,15.69918115,0.0003428,69.9973,223.2091,265.0025,95.078,-1.1774e-06,-3.54e-06,0.0,0 STARLINK-5924,1 55963U 23037BB  23189.81820863 -.00000354  00000-0 -11774-5 0  9991,2 55963  69.9973 223.2091 0003428 265.0025  95.0780 15.69918115 18272,6737.268,91.725,361.443,356.824,0.0
55963.0,STARLINK-5924,PAYLOAD,2023-07-09 12:27:29,15.69926683,0.0003138,69.9992,221.2405,262.4762,97.6078,1.0883e-05,1.096e-05,0.0,0 STARLINK-5924,1 55963U 23037BB  23190.51908633  .00001096  00000-0  10883-4 0  9993,2 55963  69.9992 221.2405 0003138 262.4762  97.6078 15.69926683 18386,6737.244,91.724,361.223,356.995,0.0
55963.0,STARLINK-5924,PAYLOAD,2023-07-11 01:09:32,15.69921018,0.0003566,69.9972,216.9388,266.2178,93.861,8.2962e-06,7.85e-06,0.0,0 STARLINK-5924,1 55963U 23037BB  23192.04829094  .00000785  00000-0  82962-5 0  9998,2 55963  69.9972 216.9388 0003566 266.2178  93.8610 15.69921018 18627,6737.26,91.724,361.527,356.722,0.0
55963.0,STARLINK-5924,PAYLOAD,2023-07-11 10:20:02,15.69929021,0.0003492,69.998,215.8643,266.7804,93.2992,6.0663e-06,5.17e-06,0.0,0 STARLINK-5924,1 55963U 23037BB  23192.43058574  .00000517  00000-0  60663-5 0  9995,2 55963  69.9980 215.8643 0003492 266.7804  93.2992 15.69929021 18682,6737.237,91.724,361.455,356.749,0.0
55963.0,STARLINK-5924,PAYLOAD,2023-07-12 07:44:34,15.69922853,0.0003379,69.997,213.3568,265.4287,94.6523,1.7037e-05,1.836e-05,0.0,0 STARLINK-5924,1 55963U 23037BB  23193.32262160  .00001836  00000-0  17037-4 0  9993,2 55963  69.9970 213.3568 0003379 265.4287  94.6523 15.69922853 18822,6737.255,91.724,361.396,356.843,0.0
55963.0,STARLINK-5924,PAYLOAD,2023-07-13 11:16:06,15.69927349,0.0003456,69.997,210.1305,259.9131,100.1675,1.7165e-06,-6e-08,0.0,0 STARLINK-5924,1 55963U 23037BB  23194.46952229 -.00000006  00000-0  17165-5 0  9993,2 55963  69.9970 210.1305 0003456 259.9131 100.1675 15.69927349 19005,6737.242,91.724,361.435,356.778,0.0
55963.0,STARLINK-5924,PAYLOAD,2023-07-14 17:51:10,15.69911273,0.0003022,69.9986,206.5496,268.0121,92.0729,-1.1524e-06,-3.51e-06,0.0,0 STARLINK-5924,1 55963U 23037BB  23195.74387086 -.00000351  00000-0 -11524-5 0  9995,2 55963  69.9986 206.5496 0003022 268.0121  92.0729 15.69911273 19201,6737.288,91.725,361.189,357.117,0.0
55963.0,STARLINK-5924,PAYLOAD,2023-07-15 09:08:39,15.69937487,0.000264,70.0,204.7599,264.1622,95.9273,1.7706e-05,1.918e-05,0.0,0 STARLINK-5924,1 55963U 23037BB  23196.38101777  .00001918  00000-0  17706-4 0  9992,2 55963  70.0000 204.7599 0002640 264.1622  95.9273 15.69937487 19305,6737.213,91.723,360.856,357.299,0.0
55963.0,STARLINK-5924,PAYLOAD,2023-07-15 18:19:11,15.69914448,0.0003819,69.9976,203.6814,262.3627,97.7135,2.2045e-06,5.2e-07,0.0,0 STARLINK-5924,1 55963U 23037BB  23196.76333258  .00000052  00000-0  22045-5 0  9996,2 55963  69.9976 203.6814 0003819 262.3627  97.7135 15.69914448 19361,6737.279,91.725,361.717,356.571,0.0
55963.0,STARLINK-5924,PAYLOAD,2023-07-16 08:04:57,15.69929239,0.0003512,69.9975,202.071,269.3157,90.7636,6.4458e-06,5.62e-06,0.0,0 STARLINK-5924,1 55963U 23037BB  23197.33677746  .00000562  00000-0  64458-5 0  9993,2 55963  69.9975 202.0710 0003512 269.3157  90.7636 15.69929239 19456,6737.236,91.724,361.468,356.735,0.0
55963.0,STARLINK-5924,PAYLOAD,2023-07-17 17:43:30,15.69924104,0.0002796,69.9999,198.1313,275.6664,84.4212,2.053e-05,2.257e-05,0.0,0 STARLINK-5924,1 55963U 23037BB  23198.73854860  .00002257  00000-0  20530-4 0  9997,2 55963  69.9999 198.1313 0002796 275.6664  84.4212 15.69924104 19672,6737.251,91.724,361.0,357.232,0.0
55963.0,STARLINK-5924,PAYLOAD,2023-07-18 12:04:31,15.69934577,0.0003254,69.9994,195.9812,266.8085,93.2738,2.6554e-05,2.983e-05,0.0,0 STARLINK-5924,1 55963U 23037BB  23199.50314255  .00002983  00000-0  26554-4 0  9990,2 55963  69.9994 195.9812 0003254 266.8085  93.2738 15.69934577 19794,6737.221,91.724,361.278,356.894,0.0
55963.0,STARLINK-5924,PAYLOAD,2023-07-19 01:50:18,15.69913882,0.0003838,69.9994,194.3689,257.4321,102.6445,-9.421e-06,-1.345e-05,0.0,0 STARLINK-5924,1 55963U 23037BB  23200.07660219 -.00001345  00000-0 -94210-5 0  9997,2 55963  69.9994 194.3689 0003838 257.4321 102.6445 15.69913882 19882,6737.28,91.725,361.731,356.56,0.0
55963.0,STARLINK-5924,PAYLOAD,2023-07-19 11:00:49,15.69920749,0.0003068,70.0004,193.295,260.8866,99.1983,1.0841e-05,1.091e-05,0.0,0 STARLINK-5924,1 55963U 23037BB  23200.45890311  .00001091  00000-0  10841-4 0  9990,2 55963  70.0004 193.2950 0003068 260.8866  99.1983 15.69920749 19947,6737.261,91.724,361.193,357.059,0.0
